0 FENGYUN 1C DEB
1 30659U 99025APR 13281.61279744  .00004379  00000-0  63383-3 0  6090
2 30659 099.0521 153.1171 0206034 052.5835 000.3489 14.63248754356049
0 FENGYUN 1C DEB
1 30659U 99025APR 13283.19970584  .00006080  00000-0  87534-3 0  6102
2 30659 099.0525 154.8594 0206013 047.7505 079.7386 14.63272922356272
0 FENGYUN 1C DEB
1 30659U 99025APR 13285.11875314  .00005280  00000-0  76134-3 0  6117
2 30659 099.0531 156.9661 0205989 041.9229 108.8765 14.63290486356569
0 FENGYUN 1C DEB
1 30659U 99025APR 13286.20795032  .00005358  00000-0  77272-3 0  6127
2 30659 099.0529 158.1615 0205795 038.5944 086.6181 14.63302630356717
0 FENGYUN 1C DEB
1 30659U 99025APR 13287.63026339  .00008023  00000-0  11514-2 0  6131
2 30659 099.0525 159.7230 0205738 034.2627 019.2206 14.63315085356922
0 FENGYUN 1C DEB
1 30659U 99025APR 13289.60876417  .00008936  00000-0  12806-2 0  6149
2 30659 099.0520 161.8950 0205627 028.2287 001.9456 14.63344913357212
0 FENGYUN 1C DEB
1 30659U 99025APR 13290.63340792  .00008979  00000-0  12866-2 0  6150
2 30659 099.0517 163.0202 0205549 025.1213 359.8212 14.63359840357366
0 FENGYUN 1C DEB
1 30659U 99025APR 13291.87022168  .00007722  00000-0  11079-2 0  6162
2 30659 099.0510 164.3783 0205467 021.3458 035.5101 14.63377378357546
0 FENGYUN 1C DEB
1 30659U 99025APR 13292.89699255  .00008075  00000-0  11580-2 0  6172
2 30659 099.0509 165.5056 0205391 018.2033 044.7334 14.63389958357693
0 FENGYUN 1C DEB
1 30659U 99025APR 13294.20790443  .00008372  00000-0  12002-2 0  6181
2 30659 099.0502 166.9453 0205232 014.2137 110.9093 14.63406731357885
